*******************************************************************************
Ephemeris / WWW_USER Mon Mar 10 08:40:01 2025 Pasadena, USA      / Horizons    
*******************************************************************************
Target body name: ASASSN (C/2017 O1)              {source: JPL#21}
Center body name: Earth (399)                     {source: DE441}
Center-site name: Mauna Kea
*******************************************************************************
Start time      : A.D. 2018-Nov-22 03:51:00.0000 UT      
Stop  time      : A.D. 2018-Nov-22 16:25:00.0000 UT      
Step-size       : 1 minutes
*******************************************************************************
Target pole/equ : undefined
Target radii    : undefined                                                    
Center geodetic : 204.5278, 19.8260847, 4.21024   {E-lon(deg),Lat(deg),Alt(km)}
Center cylindric: 204.5278, 6006.35451, 2151.0229 {E-lon(deg),Dxy(km),Dz(km)}
Center pole/equ : ITRF93                          {East-longitude positive}
Center radii    : 6378.137, 6378.137, 6356.752 km {Equator_a, b, pole_c}       
Target primary  : Sun
Vis. interferer : MOON (R_eq= 1737.400) km        {source: DE441}
Rel. light bend : Sun                             {source: DE441}
Rel. lght bnd GM: 1.3271E+11 km^3/s^2                                          
Small-body perts: Yes                             {source: SB441-N16}
Atmos refraction: NO (AIRLESS)
RA format       : HMS
Time format     : CAL 
Calendar mode   : Mixed Julian/Gregorian
RTS-only print  : NO       
EOP file        : eop.250307.p250603                                           
EOP coverage    : DATA-BASED 1962-JAN-20 TO 2025-MAR-07. PREDICTS-> 2025-JUN-02
Units conversion: 1 au= 149597870.700 km, c= 299792.458 km/s, 1 day= 86400.0 s 
Table cut-offs 1: Elevation (-90.0deg=NO ),Airmass (>38.000=NO), Daylight (YES)
Table cut-offs 2: Solar elongation (  0.0,180.0=NO ),Local Hour Angle( 0.0=NO )
Table cut-offs 3: RA/DEC angular rate (     0.0=NO )                           
*******************************************************************************
Initial IAU76/J2000 heliocentric ecliptic osculating elements (au, days, deg.):
  EPOCH=  2458039.5 ! 2017-Oct-13.0000000 (TDB)    RMSW= n.a.                  
   EC= .9964254882304144   QR= 1.498687032290766   TP= 2458041.2851755521      
   OM= 25.80948799039273   W= 20.90785287564418    IN= 39.84841297991522       
  Equivalent ICRF heliocentric cartesian coordinates (au, au/d):
   X= 1.103880574170232E+00  Y= 7.544591652134763E-01  Z= 6.774428678789283E-01
  VX=-1.240653547490291E-02 VY= 4.322571932715848E-03 VZ= 1.488380440184248E-02
Comet physical (GM= km^3/s^2; RAD= km):                                        
   GM= n.a.                RAD= n.a.                                           
   M1=  12.4     M2=  n.a.     k1=  8.75   k2= n.a.     PHCOF= n.a.            
*******************************************************************************
 Date__(UT)__HR:MN     R.A._________(ICRF)_________DEC
******************************************************
$$SOE
 2018-Nov-22 08:01  m  12 38 38.556171 +23 38 13.92270
 2018-Nov-22 08:02  m  12 38 38.580157 +23 38 13.87270
 2018-Nov-22 08:03  m  12 38 38.604141 +23 38 13.82271
 2018-Nov-22 08:04  m  12 38 38.628125 +23 38 13.77274
 2018-Nov-22 08:05  m  12 38 38.652107 +23 38 13.72278
 2018-Nov-22 08:06  m  12 38 38.676089 +23 38 13.67284
 2018-Nov-22 08:07  m  12 38 38.700070 +23 38 13.62291
 2018-Nov-22 08:08  m  12 38 38.724050 +23 38 13.57299
 2018-Nov-22 08:09  m  12 38 38.748028 +23 38 13.52309
 2018-Nov-22 08:10  m  12 38 38.772006 +23 38 13.47321
 2018-Nov-22 08:11  m  12 38 38.795983 +23 38 13.42333
 2018-Nov-22 08:12  m  12 38 38.819959 +23 38 13.37348
 2018-Nov-22 08:13  m  12 38 38.843935 +23 38 13.32363
 2018-Nov-22 08:14  m  12 38 38.867909 +23 38 13.27380
 2018-Nov-22 08:15  m  12 38 38.891882 +23 38 13.22399
 2018-Nov-22 08:16  m  12 38 38.915854 +23 38 13.17419
 2018-Nov-22 08:17  m  12 38 38.939825 +23 38 13.12440
 2018-Nov-22 08:18  m  12 38 38.963795 +23 38 13.07463
 2018-Nov-22 08:19  m  12 38 38.987764 +23 38 13.02487
 2018-Nov-22 08:20  m  12 38 39.011732 +23 38 12.97512
 2018-Nov-22 08:21  m  12 38 39.035699 +23 38 12.92539
 2018-Nov-22 08:22  m  12 38 39.059665 +23 38 12.87568
 2018-Nov-22 08:23  m  12 38 39.083630 +23 38 12.82598
 2018-Nov-22 08:24  m  12 38 39.107593 +23 38 12.77629
 2018-Nov-22 08:25  m  12 38 39.131556 +23 38 12.72661
 2018-Nov-22 08:26  m  12 38 39.155518 +23 38 12.67695
 2018-Nov-22 08:27  m  12 38 39.179478 +23 38 12.62731
 2018-Nov-22 08:28  m  12 38 39.203438 +23 38 12.57768
 2018-Nov-22 08:29  m  12 38 39.227396 +23 38 12.52806
 2018-Nov-22 08:30  m  12 38 39.251353 +23 38 12.47845
 2018-Nov-22 08:31  m  12 38 39.275309 +23 38 12.42886
 2018-Nov-22 08:32  m  12 38 39.299264 +23 38 12.37929
 2018-Nov-22 08:33  m  12 38 39.323218 +23 38 12.32973
 2018-Nov-22 08:34  m  12 38 39.347170 +23 38 12.28018
 2018-Nov-22 08:35  m  12 38 39.371122 +23 38 12.23064
 2018-Nov-22 08:36  m  12 38 39.395072 +23 38 12.18112
 2018-Nov-22 08:37  m  12 38 39.419021 +23 38 12.13161
 2018-Nov-22 08:38  m  12 38 39.442969 +23 38 12.08212
 2018-Nov-22 08:39  m  12 38 39.466915 +23 38 12.03264
 2018-Nov-22 08:40  m  12 38 39.490861 +23 38 11.98317
 2018-Nov-22 08:41  m  12 38 39.514805 +23 38 11.93372
 2018-Nov-22 08:42  m  12 38 39.538748 +23 38 11.88428
 2018-Nov-22 08:43  m  12 38 39.562690 +23 38 11.83486
 2018-Nov-22 08:44  m  12 38 39.586630 +23 38 11.78545
 2018-Nov-22 08:45  m  12 38 39.610570 +23 38 11.73605
 2018-Nov-22 08:46  m  12 38 39.634508 +23 38 11.68667
 2018-Nov-22 08:47  m  12 38 39.658444 +23 38 11.63730
 2018-Nov-22 08:48  m  12 38 39.682380 +23 38 11.58794
 2018-Nov-22 08:49  m  12 38 39.706314 +23 38 11.53860
 2018-Nov-22 08:50  m  12 38 39.730247 +23 38 11.48927
 2018-Nov-22 08:51  m  12 38 39.754178 +23 38 11.43995
 2018-Nov-22 08:52  m  12 38 39.778108 +23 38 11.39065
 2018-Nov-22 08:53  m  12 38 39.802037 +23 38 11.34136
 2018-Nov-22 08:54  m  12 38 39.825965 +23 38 11.29208
 2018-Nov-22 08:55  m  12 38 39.849891 +23 38 11.24282
 2018-Nov-22 08:56  m  12 38 39.873816 +23 38 11.19357
 2018-Nov-22 08:57  m  12 38 39.897740 +23 38 11.14433
 2018-Nov-22 08:58  m  12 38 39.921662 +23 38 11.09511
 2018-Nov-22 08:59  m  12 38 39.945583 +23 38 11.04590
 2018-Nov-22 09:00  m  12 38 39.969502 +23 38 10.99670
 2018-Nov-22 09:01  m  12 38 39.993420 +23 38 10.94752
 2018-Nov-22 09:02  m  12 38 40.017337 +23 38 10.89835
 2018-Nov-22 09:03  m  12 38 40.041252 +23 38 10.84919
 2018-Nov-22 09:04  m  12 38 40.065166 +23 38 10.80005
 2018-Nov-22 09:05  m  12 38 40.089078 +23 38 10.75092
 2018-Nov-22 09:06  m  12 38 40.112989 +23 38 10.70180
 2018-Nov-22 09:07  m  12 38 40.136899 +23 38 10.65269
 2018-Nov-22 09:08  m  12 38 40.160807 +23 38 10.60360
 2018-Nov-22 09:09  m  12 38 40.184713 +23 38 10.55452
 2018-Nov-22 09:10  m  12 38 40.208619 +23 38 10.50546
 2018-Nov-22 09:11  m  12 38 40.232522 +23 38 10.45640
 2018-Nov-22 09:12  m  12 38 40.256424 +23 38 10.40736
 2018-Nov-22 09:13  m  12 38 40.280325 +23 38 10.35834
 2018-Nov-22 09:14  m  12 38 40.304224 +23 38 10.30932
 2018-Nov-22 09:15  m  12 38 40.328122 +23 38 10.26032
 2018-Nov-22 09:16  m  12 38 40.352018 +23 38 10.21133
 2018-Nov-22 09:17  m  12 38 40.375913 +23 38 10.16236
 2018-Nov-22 09:18  m  12 38 40.399806 +23 38 10.11339
 2018-Nov-22 09:19  m  12 38 40.423698 +23 38 10.06444
 2018-Nov-22 09:20  m  12 38 40.447588 +23 38 10.01550
 2018-Nov-22 09:21  m  12 38 40.471477 +23 38 09.96658
 2018-Nov-22 09:22  m  12 38 40.495364 +23 38 09.91767
 2018-Nov-22 09:23  m  12 38 40.519249 +23 38 09.86877
 2018-Nov-22 09:24  m  12 38 40.543133 +23 38 09.81988
 2018-Nov-22 09:25  m  12 38 40.567016 +23 38 09.77100
 2018-Nov-22 09:26  m  12 38 40.590896 +23 38 09.72214
 2018-Nov-22 09:27  m  12 38 40.614775 +23 38 09.67329
 2018-Nov-22 09:28  m  12 38 40.638653 +23 38 09.62445
 2018-Nov-22 09:29  m  12 38 40.662529 +23 38 09.57563
 2018-Nov-22 09:30  m  12 38 40.686403 +23 38 09.52681
 2018-Nov-22 09:31  m  12 38 40.710276 +23 38 09.47801
 2018-Nov-22 09:32  m  12 38 40.734147 +23 38 09.42922
 2018-Nov-22 09:33  m  12 38 40.758016 +23 38 09.38045
 2018-Nov-22 09:34  m  12 38 40.781884 +23 38 09.33168
 2018-Nov-22 09:35  m  12 38 40.805750 +23 38 09.28293
 2018-Nov-22 09:36  m  12 38 40.829615 +23 38 09.23419
 2018-Nov-22 09:37  m  12 38 40.853478 +23 38 09.18546
 2018-Nov-22 09:38  m  12 38 40.877339 +23 38 09.13675
 2018-Nov-22 09:39  m  12 38 40.901198 +23 38 09.08805
 2018-Nov-22 09:40  m  12 38 40.925056 +23 38 09.03935
 2018-Nov-22 09:41  m  12 38 40.948912 +23 38 08.99067
 2018-Nov-22 09:42  m  12 38 40.972766 +23 38 08.94201
 2018-Nov-22 09:43  m  12 38 40.996619 +23 38 08.89335
 2018-Nov-22 09:44  m  12 38 41.020470 +23 38 08.84471
 2018-Nov-22 09:45  m  12 38 41.044319 +23 38 08.79608
 2018-Nov-22 09:46  m  12 38 41.068167 +23 38 08.74746
 2018-Nov-22 09:47  m  12 38 41.092012 +23 38 08.69885
 2018-Nov-22 09:48  m  12 38 41.115856 +23 38 08.65025
 2018-Nov-22 09:49  m  12 38 41.139699 +23 38 08.60166
 2018-Nov-22 09:50  m  12 38 41.163539 +23 38 08.55309
 2018-Nov-22 09:51  m  12 38 41.187378 +23 38 08.50453
 2018-Nov-22 09:52  m  12 38 41.211215 +23 38 08.45598
 2018-Nov-22 09:53  m  12 38 41.235050 +23 38 08.40744
 2018-Nov-22 09:54  m  12 38 41.258883 +23 38 08.35891
 2018-Nov-22 09:55  m  12 38 41.282715 +23 38 08.31040
 2018-Nov-22 09:56  m  12 38 41.306544 +23 38 08.26189
 2018-Nov-22 09:57  m  12 38 41.330372 +23 38 08.21340
 2018-Nov-22 09:58  m  12 38 41.354199 +23 38 08.16492
 2018-Nov-22 09:59  m  12 38 41.378023 +23 38 08.11645
 2018-Nov-22 10:00  m  12 38 41.401845 +23 38 08.06799
 2018-Nov-22 10:01  m  12 38 41.425666 +23 38 08.01954
 2018-Nov-22 10:02  m  12 38 41.449485 +23 38 07.97111
 2018-Nov-22 10:03  m  12 38 41.473302 +23 38 07.92268
 2018-Nov-22 10:04  m  12 38 41.497117 +23 38 07.87427
 2018-Nov-22 10:05  m  12 38 41.520930 +23 38 07.82586
